STARLINK-31955          
1 59939U 24106T   26068.09245399 -.00001235  00000+0 -35368-4 0  9992
2 59939  43.0036 335.7110 0001578 261.2872  98.7801 15.27582623100478
PHISAT 2                
1 60470U 24149C   26068.78834181  .00008925  00000+0  31421-3 0  9996
2 60470  97.3806 148.6498 0001175 168.6230 191.5037 15.29548631 86792
